# From MPEC 2022-ED3
C/2016 M1 (PANSTARRS),e,90.8878,92.2553,209.9369,132541,0.0000000,0.99998329,0.0000,08/10.5406/2018,2000,g  5.0,4.0
# From MPEC 2022-OB6
C/2016 N4 (MASTER),e,72.6511,353.9901,55.9640,8881,0.0000012,0.99964012,0.0000,09/17.8255/2017,2000,g  8.5,4.0
# From MPEC 2021-P47
C/2016 N6 (PANSTARRS),e,105.8558,298.9286,162.5960,1000,0.0000312,0.99733996,0.0000,07/17.5485/2018,2000,g  7.0,4.0
# From MPC102099
P/2016 P1 (PANSTARRS),e,24.4290,319.5490,270.4111,3.198585,0.1722929,0.28939969,86.9792,10/29.0/2022,2000,g 15.0,4.0
# From MPEC 2022-M21
C/2016 Q2 (PANSTARRS),h,05/12.3222/2021,109.3843,322.3064,84.5545,1.002696,7.081964,2000,6.0,4.0
# From MPC102955
C/2016 Q4 (Kowalski),e,7.2475,271.2962,99.6487,17.01408,0.0140440,0.58297381,24.3211,10/29.0/2022,2000,g  7.0,4.0
# From MPEC 2021-N06
C/2016 R2 (PANSTARRS),e,58.3158,80.5191,33.0974,476.2422,0.0000948,0.99454672,0.0000,05/09.1367/2018,2000,g  7.0,4.0
# From MPEC 2022-K19
P/2016 R4 (Gibbs),e,10.8777,168.2615,174.1214,5.332465,0.0800409,0.47627192,183.1287,10/29.0/2022,2000,g 12.5,4.0
# From MPC105543
P/2016 S1 (PANSTARRS),e,94.7260,227.6419,273.2607,8.276341,0.0413949,0.71027213,84.9620,10/29.0/2022,2000,g 12.0,4.0
# From MPC106345
P/2016 WM48 (Lemmon),e,117.5696,59.9300,36.1344,8.168556,0.0422169,0.78349243,87.5444,10/29.0/2022,2000,g 15.0,4.0
# From MPEC 2021-P47
C/2016 X1 (Lemmon),e,26.4574,256.3495,224.4759,1327,0.0000204,0.99430602,0.0000,04/27.8278/2019,2000,g  6.0,4.0
# From MPC114598
C/2017 AB5 (PANSTARRS),e,32.4638,42.5984,78.2828,2566,0.0000076,0.99641255,0.0000,02/14.4918/2018,2000,g  5.5,4.0
# From MPEC 2022-OB6
C/2017 B3 (LINEAR),h,02/01.6264/2019,54.1587,2.1749,284.8290,1.000424,3.928680,2000,6.0,4.0
# From MPC103847
P/2017 B4 (PANSTARRS),e,20.0584,121.4578,11.0197,4.410520,0.1064068,0.36495152,359.9130,01/05.0/2017,2000,g 14.5,4.0
# From MPEC 2022-OB6
P/2017 D1 (Fuls),e,20.7656,82.1874,7.9544,4.828097,0.0929052,0.43684562,215.4542,10/29.0/2022,2000,g 14.0,4.0
# From MPEC 2022-OB6
P/2017 D4 (PANSTARRS),e,10.5467,264.9424,212.1444,7.549649,0.0475132,0.62884540,106.6661,10/29.0/2022,2000,g 13.0,4.0
# From MPC111769
C/2017 F1 (Lemmon),h,11/27.9942/2017,146.4672,158.7868,64.7213,1.001428,4.500054,2000,10.5,4.0
# From MPC114598
C/2017 F2 (PANSTARRS),h,11/25.5761/2017,42.5580,38.7075,134.8865,1.001781,6.923618,2000,7.5,4.0
# From MPC104794
P/2017 G1 (PANSTARRS),e,4.7828,249.6687,224.3701,7.276355,0.0502150,0.65359177,119.3022,10/29.0/2022,2000,g 13.5,4.0
# From MPC108595
P/2017 G2 (PANSTARRS),e,47.9589,79.8336,105.4268,8.052466,0.0431331,0.64753709,84.8723,10/29.0/2022,2000,g 13.0,4.0
# From MPC115882
C/2017 K1 (PANSTARRS),h,03/17.8486/2018,154.0218,225.7305,4.4190,1.003413,7.283444,2000,7.0,4.0
# From MPEC 2022-UY9
C/2017 K2 (PANSTARRS),h,12/19.6847/2022,87.5629,88.2352,236.1990,1.000811,1.796892,2000,1.5,4.0
# From MPEC 2021-N06
P/2017 K3 (Gasparovic),e,4.2732,354.2927,253.4290,5.584766,0.0746787,0.57921725,147.8312,10/29.0/2022,2000,g 14.5,4.0
# From MPC114598
C/2017 K4 (ATLAS),e,16.6622,298.9163,15.3487,28.69839,0.0064109,0.90725559,11.2501,10/29.0/2022,2000,g 10.0,4.0
# From MPEC 2021-P47
C/2017 K5 (PANSTARRS),h,03/27.3868/2020,82.2500,102.3847,172.0685,1.005250,7.684018,2000,5.0,4.0
# From MPC114599
C/2017 K6 (Jacques),e,57.2198,84.8938,303.8167,1243,0.0000225,0.99839429,0.0000,01/04.0469/2018,2000,g 11.0,4.0
# From MPEC 2022-OB6
C/2017 M4 (ATLAS),h,01/17.9769/2019,105.6408,65.9600,167.6108,1.001278,3.252207,2000,6.0,4.0
# From MPC118841
C/2017 M5 (TOTAS),h,06/04.2560/2018,15.8626,216.2890,92.8644,1.005130,6.004618,2000,6.5,4.0
# From MPEC 2022-OB6
C/2017 O1 (ASASSN),e,39.9910,25.7135,20.8464,381.8274,0.0001321,0.99609589,0.0000,10/16.0316/2017,2000,g 11.0,4.0
# From MPC114599
P/2017 P1 (PANSTARRS),e,7.6897,221.3670,122.6929,7.912193,0.0442852,0.31090476,70.3848,10/29.0/2022,2000,g 10.0,4.0
# From MPC114599
C/2017 P2 (PANSTARRS),e,50.0488,165.4622,132.5199,2547,0.0000077,0.99902768,0.0000,12/05.8179/2017,2000,g 10.0,4.0
# From MPC114599
C/2017 S3 (PANSTARRS),h,08/16.6478/2018,99.2040,171.3049,255.8179,1.000091,0.205267,2000,12.9,4.0
# From MPC109591
C/2017 S6 (Catalina),h,02/26.1912/2018,152.8645,131.1202,135.0197,1.000955,1.551648,2000,12.5,4.0
# From MPEC 2022-OB6
P/2017 S8 (PANSTARRS),e,29.8486,191.5192,254.8514,2.777794,0.2128894,0.39075260,9.3258,10/29.0/2022,2000,g 16.0,4.0
# From MPC107050
P/2017 S9 (PANSTARRS),e,14.1414,146.2239,237.5705,3.156506,0.1757496,0.30574975,338.6960,10/29.0/2022,2000,g 17.0,4.0
# From MPC114600
C/2017 T1 (Heinze),e,96.9119,102.5589,97.0331,10694,0.0000009,0.99994520,0.0000,02/20.6276/2018,2000,g 14.5,4.0
# From MPEC 2021-Y10
C/2017 T2 (PANSTARRS),e,57.2566,64.4047,92.9394,1640,0.0000148,0.99901558,0.0000,05/04.7994/2020,2000,g  5.0,4.0
# From MPC114600
C/2017 T3 (ATLAS),e,88.2368,230.2136,246.8052,1222,0.0000231,0.99932587,0.0000,07/19.1170/2018,2000,g 10.0,4.0
# From MPC115882
P/2017 TW13 (Lemmon),e,44.8497,322.2673,119.9127,7.136014,0.0517036,0.71016413,82.2264,10/29.0/2022,2000,g 15.0,2.0
# From MPEC 2022-K19
P/2017 U3 (PANSTARRS),e,15.9185,165.1092,296.3191,4.925420,0.0901652,0.09951387,116.8331,10/29.0/2022,2000,g 11.0,4.0
# From MPEC 2021-P47
C/2017 U4 (PANSTARRS),e,158.2033,245.9140,158.9752,30486,0.0000002,0.99974667,0.0000,09/21.8152/2018,2000,g  7.0,4.0
# From MPC114600
C/2017 U5 (PANSTARRS),e,18.9776,163.0853,262.0001,16.90823,0.0141761,0.74478237,25.1543,10/29.0/2022,2000,g 12.0,4.0
# From MPEC 2022-PB4
C/2017 U7 (PANSTARRS),h,09/15.0950/2019,142.6092,276.2617,326.4105,1.001404,6.427641,2000,8.3,2.0
# From MPC114600
C/2017 W2 (Leonard),e,98.2092,312.8105,168.8734,13.60987,0.0196301,0.71016030,35.8008,10/29.0/2022,2000,g 11.0,4.0
# From MPC114601
P/2017 W3 (Gibbs),e,18.1675,210.2189,327.8256,7.832979,0.0449587,0.50637424,76.6572,10/29.0/2022,2000,g 10.5,4.0
# From MPEC 2021-R75
C/2017 X1 (PANSTARRS),e,31.3320,251.1512,283.1604,31.03968,0.0056994,0.84970124,9.1074,10/29.0/2022,2000,g 10.0,4.0
# From MPEC 2022-QD9
C/2017 Y2 (PANSTARRS),h,11/05.0625/2020,128.4324,66.0068,147.9339,1.001330,4.632894,2000,15.0,4.0
# From MPC111770
P/2017 Y3 (Leonard),e,27.5619,153.8517,67.5896,9.824698,0.0320055,0.86951208,55.1507,10/29.0/2022,2000,g 16.5,4.0
# From MPC114601
C/2018 A1 (PANSTARRS),e,53.6060,336.6471,96.1803,25.11812,0.0078293,0.90420909,14.3538,10/29.0/2022,2000,g 12.5,4.0
# From MPEC 2021-P47
C/2018 A3 (ATLAS),e,139.5368,194.2928,86.3514,375.0812,0.0001357,0.99126095,0.0000,01/11.1643/2019,2000,g  8.5,4.0
# From MPC114601
C/2018 A4 (PANSTARRS),e,3.1502,97.5874,355.9598,12.18401,0.0231750,0.80375450,37.6306,10/29.0/2022,2000,g 14.0,4.0
# From MPC109147
P/2018 A5 (PANSTARRS),e,23.6051,87.7949,359.4889,5.629080,0.0737986,0.52323202,137.3461,10/29.0/2022,2000,g 15.0,4.0
# From MPEC 2022-ST7
C/2018 A6 (Gibbs),e,77.0574,340.3815,264.3614,15.06365,0.0168581,0.79967303,20.3170,10/29.0/2022,2000,g  9.0,4.0
# From MPEC 2022-O08
C/2018 B1 (Lemmon),e,162.4181,133.1921,68.3942,4501,0.0000033,0.99886022,0.0000,03/27.6016/2018,2000,g  9.0,4.0
# From MPC114601
P/2018 C1 (Lemmon-Read),e,5.1124,270.3399,235.6980,5.652803,0.0733345,0.53204261,125.2880,10/29.0/2022,2000,g 13.5,4.0
# From MPC114601
C/2018 C2 (Lemmon),h,05/31.4383/2018,34.4632,91.2377,134.0307,1.000056,1.960806,2000,13.0,4.0
# From MPEC 2022-M88
C/2018 DO4 (Lemmon),e,160.4432,251.4332,176.2952,25.36056,0.0077173,0.90486998,9.0210,10/29.0/2022,2000,g 11.0,4.0
# From MPC114602
C/2018 E1 (ATLAS),e,72.5065,146.8444,299.2929,53.85820,0.0024936,0.94999575,4.1268,10/29.0/2022,2000,g 10.5,4.0
# From MPEC 2022-N37
C/2018 E2 (Barros),e,97.6257,67.1547,277.4449,2819,0.0000066,0.99860960,0.0000,12/23.6817/2017,2000,g 10.5,4.0
# From MPC114602
C/2018 EN4 (NEOWISE),e,81.9291,136.1283,35.0309,17.93035,0.0129814,0.91850834,20.8952,10/29.0/2022,2000,g 15.0,4.0
# From MPC114602
C/2018 EF9 (Lemmon),e,84.6193,172.5552,72.6307,460.8028,0.0000996,0.99661193,0.0000,05/21.4074/2018,2000,g 18.0,2.0
# From MPEC 2021-R75
C/2018 F1 (Grauer),e,46.0782,177.2758,71.5940,244.5760,0.0002577,0.98774700,0.0000,12/12.2315/2018,2000,g 11.5,4.0
# From MPEC 2021-W31
C/2018 F4 (PANSTARRS),e,78.0846,26.5156,263.2238,56509,0.0000001,0.99993907,0.0000,12/03.3975/2019,2000,g 11.0,6.0
# From MPEC 2021-Y10
C/2018 F4-A,e,78.0848,26.5158,263.2206,30469,0.0000002,0.99988700,0.0000,12/03.3857/2019,2000,g 11.0,6.0
# From MPEC 2021-W31
C/2018 F4-B,e,78.0856,26.5154,263.2056,205008,0.0000000,0.99998321,0.0000,12/03.3219/2019,2000,g 11.0,6.0
# From MPC114602
P/2018 H2 (PANSTARRS),e,7.4136,67.9664,120.0433,4.383467,0.1073934,0.54211388,187.3075,10/29.0/2022,2000,g 16.6,2.0
# From MPC114602
C/2018 K1 (Weiland),e,164.1890,260.1657,325.2349,30.20152,0.0059383,0.93769551,9.8889,10/29.0/2022,2000,g 14.9,4.0
# From MPEC 2021-R75
C/2018 KJ3 (Lemmon),e,136.6800,91.6459,217.6720,957.3378,0.0000333,0.99621048,0.0000,09/09.9761/2019,2000,g 12.2,2.0
# From MPC114602
P/2018 L1 (PANSTARRS),e,10.5810,268.6187,18.0375,3.653444,0.1411401,0.48194914,204.2482,10/29.0/2022,2000,g 15.0,4.0
# From MPEC 2021-P47
C/2018 L2 (ATLAS),e,67.2743,243.0053,56.3215,258.9503,0.0002365,0.99337459,0.0000,12/02.3304/2018,2000,g 10.0,4.0
# From MPC114603
P/2018 L4 (PANSTARRS),e,26.6203,145.1680,140.6210,4.944986,0.0896306,0.65921790,139.0173,10/29.0/2022,2000,g 17.5,4.0
# From MPC119996
P/2018 L5 (Leonard),e,2.2086,219.0488,93.9514,3.628846,0.1425776,0.36432929,233.4555,10/29.0/2022,2000,g 14.5,4.0
# From MPC117070
C/2018 M1 (Catalina),e,37.2910,339.4146,14.2323,21.48634,0.0098960,0.93927675,15.5482,10/29.0/2022,2000,g 15.5,4.0
# From MPEC 2022-M21
C/2018 N1 (NEOWISE),e,159.4176,292.5213,354.7243,503.6981,0.0000872,0.99739973,0.0000,08/02.6915/2018,2000,g 15.5,4.0
# From MPEC 2022-L66
C/2018 N2 (ASASSN),h,11/11.2714/2019,77.5512,25.2067,24.4691,1.000790,3.127091,2000,6.0,4.0
# From MPC114603
C/2018 O1 (ATLAS),e,154.0068,87.7643,162.6990,28.08132,0.0066234,0.94448463,10.0584,10/29.0/2022,2000,g 17.0,4.0
# From MPEC 2022-M21
P/2018 P3 (PANSTARRS),e,8.9141,59.1591,305.9716,3.004504,0.1892539,0.41710624,279.8157,10/29.0/2022,2000,g 14.5,4.0
